OBJECT_NAME,OBJECT_ID,EPOCH,MEAN_MOTION,ECCENTRICITY,INCLINATION,RA_OF_ASC_NODE,ARG_OF_PERICENTER,MEAN_ANOMALY,EPHEMERIS_TYPE,CLASSIFICATION_TYPE,NORAD_CAT_ID,ELEMENT_SET_NO,REV_AT_EPOCH,BSTAR,MEAN_MOTION_DOT,MEAN_MOTION_DDOT
STARLINK-35687,2025-265J,2026-06-08T05:09:11.001024,15.27593659,.00000484,43.0074,127.0868,305.2031,54.8817,0,U,66524,999,3095,.80689161E-3,.22017E-3,0
STARLINK-35975,2025-265K,2026-06-08T04:22:55.350912,15.27594053,.00006142,42.9993,126.8384,259.3245,100.7538,0,U,66525,999,3095,.82017377E-3,.22385E-3,0
STARLINK-35932,2025-265L,2026-06-08T04:19:13.329696,15.27589127,.00045895,43.0065,126.8200,280.3434,79.6900,0,U,66526,999,3095,.49290683E-3,.13332E-3,0
STARLINK-35935,2025-265M,2026-06-08T04:46:58.632672,15.27583519,.00004048,43.0113,126.9650,236.4818,123.5996,0,U,66527,999,3095,.48893695E-3,.13218E-3,0
STARLINK-35928,2025-265N,2026-06-08T04:09:58.053312,15.27600288,.00003304,43.0016,126.7668,261.9079,98.1736,0,U,66528,999,3095,.55626791E-3,.15086E-3,0
STARLINK-35933,2025-265P,2026-06-08T05:03:37.604160,15.27556161,.00010347,42.9996,127.0546,280.9988,79.0747,0,U,66529,999,3095,.53396017E-3,.1445E-3,0
STARLINK-35961,2025-265Q,2026-06-08T04:43:16.582080,15.27624828,.00035368,42.9985,126.9464,110.9399,249.1831,0,U,66530,999,3095,.84042635E-3,.22971E-3,0
STARLINK-35960,2025-265R,2026-06-07T15:18:12.966048,15.27572679,.00011101,43.0022,129.6319,267.8969,92.1756,0,U,66531,999,3087,.75951569E-3,.20692E-3,0
STARLINK-35914,2025-265S,2026-06-08T04:45:07.679520,15.27582287,.00003935,43.0087,126.9576,215.8738,144.2087,0,U,66532,999,3095,.51077613E-3,.13821E-3,0
STARLINK-35707,2025-265T,2026-06-08T04:28:28.556832,15.27603690,.00015339,43.0001,126.8652,267.6262,92.4414,0,U,66533,999,3095,.51326336E-3,.13899E-3,0
STARLINK-35976,2025-265U,2026-06-08T05:07:19.729056,15.27577867,.00023486,42.9936,127.0700,263.3730,96.6854,0,U,66534,999,3095,.48800063E-3,.1319E-3,0
STARLINK-35514,2025-265V,2026-06-07T05:29:27.416256,15.27600305,.0000786,43.0038,132.5793,285.7307,74.3458,0,U,66535,999,3080,.72036E-3,.19626E-3,0
STARLINK-35640,2025-265W,2026-06-08T04:41:25.576224,15.27589487,.00004718,43.0037,126.9324,253.2104,106.8696,0,U,66536,999,3095,.67464301E-3,.18354E-3,0
STARLINK-35582,2025-265X,2026-06-08T04:30:16.638048,15.27585306,.00003036,43.0019,126.8688,257.1160,102.9658,0,U,66537,999,3095,.80463805E-4,.1953E-4,0
STARLINK-35577,2025-265Y,2026-06-08T04:24:46.264320,15.27595475,.00014437,43.0036,126.8423,270.5281,89.5405,0,U,66538,999,3095,.80073108E-3,.21848E-3,0
STARLINK-35697,2025-265Z,2026-06-08T04:15:30.333888,15.27584617,.00030679,43.0035,126.7919,274.3630,85.6871,0,U,66539,999,3095,.74810368E-3,.20385E-3,0
STARLINK-35818,2025-265AA,2026-06-07T15:07:18.568128,15.27605630,.00027881,42.9942,130.4311,267.8084,92.2448,0,U,66540,999,3086,.69804525E-3,.19012E-3,0
STARLINK-35796,2025-265AB,2026-06-08T04:39:34.664544,15.27593147,.00004713,43.0044,126.9250,224.6647,135.4167,0,U,66541,999,3095,.82071912E-3,.224E-3,0
STARLINK-35833,2025-265AC,2026-06-07T15:11:00.971232,15.27598172,.0002037,42.9999,130.4572,264.6777,95.3842,0,U,66542,999,3086,.88695774E-3,.24239E-3,0
STARLINK-35315,2025-265AD,2026-06-08T04:52:31.639872,15.27583614,.00006448,42.9976,126.9926,207.3770,152.7048,0,U,66543,999,3095,.53556396E-3,.14506E-3,0
STARLINK-35728,2025-265AE,2026-06-07T15:31:10.000992,15.27590296,.00013937,43.0038,129.6912,293.5316,66.5390,0,U,66544,999,3087,.78803644E-3,.21493E-3,0
STARLINK-35699,2025-268A,2026-06-07T09:24:27.660384,15.27590429,.00037936,43.0100,200.9072,282.5315,77.5113,0,U,66557,999,3167,.55692285E-3,.15101E-3,0
STARLINK-35695,2025-268B,2026-06-07T09:18:54.561600,15.27590741,.00023667,42.9984,200.8749,278.0920,81.9664,0,U,66558,999,3167,.66883871E-3,.18195E-3,0
STARLINK-35419,2025-268C,2026-06-07T08:47:28.058208,15.27578421,.00014669,43.0022,200.7034,261.9783,98.0902,0,U,66559,999,3167,.48372088E-3,.13072E-3,0
STARLINK-35411,2025-268D,2026-06-07T19:42:50.497920,15.27581377,.00017008,43.0057,198.1035,276.3979,83.6679,0,U,66560,999,3174,.53303168E-3,.14435E-3,0
STARLINK-35305,2025-268E,2026-06-07T19:31:44.261472,15.27591379,.00021236,42.9963,198.0430,263.2410,96.8199,0,U,66561,999,3174,.95222964E-3,.26044E-3,0
STARLINK-35579,2025-268F,2026-06-07T19:37:17.427648,15.27603684,.0002355,42.9980,198.0728,268.1332,91.9250,0,U,66562,999,3174,.78939857E-3,.2154E-3,0
STARLINK-35437,2025-268G,2026-06-07T19:26:11.417568,15.27620618,.00011608,42.9956,198.0118,256.5939,103.4784,0,U,66563,999,3174,.72146492E-3,.19669E-3,0
STARLINK-35358,2025-268H,2026-06-07T19:20:38.025888,15.27595254,.00022061,42.9893,197.9792,272.4648,87.5951,0,U,66564,999,3174,.82946978E-3,.22645E-3,0
STARLINK-35893,2025-268J,2026-06-07T19:15:05.061024,15.27591567,.00016017,42.9909,197.9474,280.9909,79.0762,0,U,66565,999,3174,.81361716E-3,.22203E-3,0
