STARLINK-35687          
1 66524U 25265J   26159.21471066  .00022017  00000+0  80689-3 0  9998
2 66524  43.0074 127.0868 0000048 305.2031  54.8817 15.27593659 30953
STARLINK-35975          
1 66525U 25265K   26159.18258508  .00022385  00000+0  82017-3 0  9994
2 66525  42.9993 126.8384 0000614 259.3245 100.7538 15.27594053 30957
STARLINK-35932          
1 66526U 25265L   26159.18001539  .00013332  00000+0  49291-3 0  9994
2 66526  43.0065 126.8200 0004589 280.3434  79.6900 15.27589127 30959
STARLINK-35935          
1 66527U 25265M   26159.19928973  .00013218  00000+0  48894-3 0  9997
2 66527  43.0113 126.9650 0000404 236.4818 123.5996 15.27583519 30957
STARLINK-35928          
1 66528U 25265N   26159.17358858  .00015086  00000+0  55627-3 0  9992
2 66528  43.0016 126.7668 0000330 261.9079  98.1736 15.27600288 30959
STARLINK-35933          
1 66529U 25265P   26159.21085190  .00014450  00000+0  53396-3 0  9999
2 66529  42.9996 127.0546 0001034 280.9988  79.0747 15.27556161 30956
STARLINK-35961          
1 66530U 25265Q   26159.19671970  .00022971  00000+0  84043-3 0  9995
2 66530  42.9985 126.9464 0003536 110.9399 249.1831 15.27624828 30950
STARLINK-35960          
1 66531U 25265R   26158.63765007  .00020692  00000+0  75952-3 0  9996
2 66531  43.0022 129.6319 0001110 267.8969  92.1756 15.27572679 30874
STARLINK-35914          
1 66532U 25265S   26159.19800555  .00013821  00000+0  51078-3 0  9996
2 66532  43.0087 126.9576 0000393 215.8738 144.2087 15.27582287 30951
STARLINK-35707          
1 66533U 25265T   26159.18644163  .00013899  00000+0  51326-3 0  9998
2 66533  43.0001 126.8652 0001533 267.6262  92.4414 15.27603690 30956
STARLINK-35976          
1 66534U 25265U   26159.21342279  .00013190  00000+0  48800-3 0  9993
2 66534  42.9936 127.0700 0002348 263.3730  96.6854 15.27577867 30957
STARLINK-35514          
1 66535U 25265V   26158.22878954  .00019626  00000+0  72036-3 0  9996
2 66535  43.0038 132.5793 0000786 285.7307  74.3458 15.27600305 30809
STARLINK-35640          
1 66536U 25265W   26159.19543491  .00018354  00000+0  67464-3 0  9995
2 66536  43.0037 126.9324 0000471 253.2104 106.8696 15.27589487 30950
STARLINK-35582          
1 66537U 25265X   26159.18769257  .00001953  00000+0  80464-4 0  9998
2 66537  43.0019 126.8688 0000303 257.1160 102.9658 15.27585306 30953
STARLINK-35577          
1 66538U 25265Y   26159.18386880  .00021848  00000+0  80073-3 0  9996
2 66538  43.0036 126.8423 0001443 270.5281  89.5405 15.27595475 30957
STARLINK-35697          
1 66539U 25265Z   26159.17743442  .00020385  00000+0  74810-3 0  9994
2 66539  43.0035 126.7919 0003067 274.3630  85.6871 15.27584617 30950
STARLINK-35818          
1 66540U 25265AA  26158.63007602  .00019012  00000+0  69805-3 0  9990
2 66540  42.9942 130.4311 0002788 267.8084  92.2448 15.27605630 30867
STARLINK-35796          
1 66541U 25265AB  26159.19415121  .00022400  00000+0  82072-3 0  9998
2 66541  43.0044 126.9250 0000471 224.6647 135.4167 15.27593147 30955
STARLINK-35833          
1 66542U 25265AC  26158.63265013  .00024239  00000+0  88696-3 0  9990
2 66542  42.9999 130.4572 0002037 264.6777  95.3842 15.27598172 30865
STARLINK-35315          
1 66543U 25265AD  26159.20314398  .00014506  00000+0  53556-3 0  9999
2 66543  42.9976 126.9926 0000644 207.3770 152.7048 15.27583614 30954
STARLINK-35728          
1 66544U 25265AE  26158.64664353  .00021493  00000+0  78804-3 0  9992
2 66544  43.0038 129.6912 0001393 293.5316  66.5390 15.27590296 30873
STARLINK-35699          
1 66557U 25268A   26158.39198681  .00015101  00000+0  55692-3 0  9996
2 66557  43.0100 200.9072 0003793 282.5315  77.5113 15.27590429 31672
STARLINK-35695          
1 66558U 25268B   26158.38813150  .00018195  00000+0  66884-3 0  9992
2 66558  42.9984 200.8749 0002366 278.0920  81.9664 15.27590741 31675
STARLINK-35419          
1 66559U 25268C   26158.36629697  .00013072  00000+0  48372-3 0  9993
2 66559  43.0022 200.7034 0001466 261.9783  98.0902 15.27578421 31670
STARLINK-35411          
1 66560U 25268D   26158.82141780  .00014435  00000+0  53303-3 0  9992
2 66560  43.0057 198.1035 0001700 276.3979  83.6679 15.27581377 31742
STARLINK-35305          
1 66561U 25268E   26158.81370673  .00026044  00000+0  95223-3 0  9993
2 66561  42.9963 198.0430 0002123 263.2410  96.8199 15.27591379 31746
STARLINK-35579          
1 66562U 25268F   26158.81756282  .00021540  00000+0  78940-3 0  9991
2 66562  42.9980 198.0728 0002355 268.1332  91.9250 15.27603684 31747
STARLINK-35437          
1 66563U 25268G   26158.80985437  .00019669  00000+0  72146-3 0  9998
2 66563  42.9956 198.0118 0001160 256.5939 103.4784 15.27620618 31748
STARLINK-35358          
1 66564U 25268H   26158.80599567  .00022645  00000+0  82947-3 0  9992
2 66564  42.9893 197.9792 0002206 272.4648  87.5951 15.27595254 31746
STARLINK-35893          
1 66565U 25268J   26158.80214191  .00022203  00000+0  81362-3 0  9990
2 66565  42.9909 197.9474 0001601 280.9909  79.0762 15.27591567 31743
